[{"OBJECT_NAME":"ONEWEB-0111","OBJECT_ID":"2020-100D","EPOCH":"2026-03-09T20:42:44.005248","MEAN_MOTION":13.12443027,"ECCENTRICITY":0.00016916,"INCLINATION":87.9004,"RA_OF_ASC_NODE":10.3725,"ARG_OF_PERICENTER":81.0721,"MEAN_ANOMALY":279.0599,"EPHEMERIS_TYPE":0,"CLASSIFICATION_TYPE":"U","NORAD_CAT_ID":47261,"ELEMENT_SET_NO":999,"REV_AT_EPOCH":25153,"BSTAR":-0.0010279299,"MEAN_MOTION_DOT":-3.57e-6,"MEAN_MOTION_DDOT":0},{"OBJECT_NAME":"DELTA 1 DEB","OBJECT_ID":"1975-052DZ","EPOCH":"2026-03-08T08:01:36.268320","MEAN_MOTION":12.84240032,"ECCENTRICITY":0.03026891,"INCLINATION":99.6983,"RA_OF_ASC_NODE":199.4986,"ARG_OF_PERICENTER":9.9899,"MEAN_ANOMALY":16.3817,"EPHEMERIS_TYPE":0,"CLASSIFICATION_TYPE":"U","NORAD_CAT_ID":21441,"ELEMENT_SET_NO":999,"REV_AT_EPOCH":63263,"BSTAR":0.00030283454,"MEAN_MOTION_DOT":5.3e-7,"MEAN_MOTION_DDOT":0}]
